zipcode,city,state
7422,New Orleans,Oklahoma
9868,Fremont,Mississippi
1436,Little Rock,New Hampshire
264,Costa Mesa,Virginia
2531,Indianapolis,Mississippi
5587,Manchester,Connecticut
8875,Olathe,Delaware
9151,Little Rock,Wyoming
6255,Lowell,Florida
2693,Stockton,New Mexico
9847,San Jose,Pennsylvania
1359,Huntsville,Alaska
181,Bridgeport,Washington
4873,Palmdale,North Carolina
1520,Montgomery,Illinois
3736,Tucson,Wyoming
7515,Kansas City,Virginia
9087,El Paso,Kentucky
9789,St. Louis,South Dakota
394,San Bernardino,Massachusetts
9788,Albuquerque,Montana
6672,Warren,Arizona
8207,Rancho Cucamonga,Kentucky
5352,Paterson,New Hampshire
1016,Lansing,Tennessee
4756,Peoria,Maine
2283,Green Bay,Arizona
7385,Indianapolis,Indiana
3795,San Francisco,Nebraska
8560,Sterling Heights,Florida
1723,Knoxville,Kentucky
7398,Minneapolis,Kentucky
5467,Manchester,West Virginia
4996,Grand Rapids,Arkansas
6230,Orange,North Carolina
8027,Lakewood,Colorado
1818,West Valley City,Mississippi
6550,Escondido,North Dakota
7501,Tallahassee,Rhode Island
8749,Richmond,Connecticut
4378,Atlanta,Texas
9367,Salem,New Mexico
794,Lancaster,Texas
1535,Palmdale,Oklahoma
7701,Louisville-Jefferson County,Wisconsin
8946,Reno,Colorado
2098,El Paso,New York
4501,Plano,Tennessee
6827,Garden Grove,Washington
4046,Richmond,Delaware
5053,Brownsville,Oregon
6451,Philadelphia,Rhode Island
3957,San Jose,New Jersey
7001,Torrance,Georgia
2910,Olathe,Maryland
8089,West Valley City,Missouri
4459,Wichita,Vermont
3303,Daly City,Utah
8366,,Mississippi
4488,Colorado Springs,Nebraska
9381,,Indiana
7251,Cedar Rapids,South Carolina
6169,Oxnard,Mississippi
6160,Kansas City,New York
3760,Kansas City,New Mexico
127,Yonkers,
889,San Bernardino,Iowa
6216,Chandler,Louisiana
6179,Cedar Rapids,New Mexico
4838,Eugene,Florida
110,Mesquite,Nebraska
72,Amarillo,South Dakota
2885,Indianapolis,New Mexico
7527,Sterling Heights,Illinois
9528,Henderson,Maryland
6273,Springfield,Pennsylvania
4391,Stamford,West Virginia
3854,Santa Clara,Oklahoma
1447,Naperville,Delaware
6426,New York City,Louisiana
3737,Chula Vista,Kansas
5013,Cambridge,Connecticut
2432,Fort Wayne,Wyoming
3037,Mesquite,Vermont
2207,Toledo,District of Columbia
3579,Atlanta,Nevada
4881,Denver,Maryland
5793,Rochester,Indiana
9159,Yonkers,Louisiana
6233,Cary,Illinois
9855,Louisville-Jefferson County,Virginia
7592,Fresno,Arkansas
6640,Concord,Missouri
1364,Fort Collins,Montana
1912,New York City,West Virginia
9376,Ann Arbor,Colorado
8586,Vallejo,Alabama
9611,Eugene,North Carolina
6259,Dayton,Kansas
2681,Lubbock,Texas
9352,Pomona,Wyoming
7255,Indianapolis,Ohio
5194,Richmond,Florida
6144,Los Angeles,Nevada
2984,Boise,Illinois
1732,Oceanside,Utah
8444,Newark,Oklahoma
7515,Berkeley,Kansas
648,New Orleans,Kansas
7808,Tulsa,Illinois
2899,Pueblo,South Dakota
4661,Peoria,Mississippi
4022,North Las Vegas,West Virginia
2781,Tulsa,North Carolina
7449,Fontana,Montana
5023,Huntington Beach,New Hampshire
7520,Inglewood,
8493,Macon,Pennsylvania
8733,Madison,Georgia
3362,Pittsburgh,Idaho
2224,Tucson,Missouri
5935,Irvine,Indiana
9820,New Orleans,Connecticut
105,Sterling Heights,Florida
5127,Provo,Nevada
8098,Lubbock,Michigan
4872,Lancaster,Michigan
7456,Coral Springs,New Jersey
8151,Topeka,Nevada
6992,Detroit,Maryland
9544,Fort Lauderdale,Rhode Island
1914,Modesto,Iowa
1806,Palmdale,Indiana
4579,Sunnyvale,South Dakota
8333,Tempe,Maine
2609,Toledo,District of Columbia
3039,Kansas City,South Dakota
1173,Santa Rosa,New Mexico
553,Fremont,California
3592,Mesa,West Virginia
4284,Henderson,North Carolina
4890,Vancouver,Georgia
715,Glendale,Louisiana
3324,Aurora,Maryland
1348,Pasadena,Vermont
2641,Chula Vista,
437,Columbus,Utah
4786,Laredo,Maryland
6602,Pompano Beach,Montana
9722,Wichita Falls,Maine
2561,Newark,Kansas
3083,Topeka,West Virginia
6342,Salem,Vermont
4780,Yonkers,Michigan
1968,Portsmouth,Alabama
6577,Indianapolis,Ohio
1984,Killeen,South Carolina
123,Albuquerque,Illinois
2100,Portsmouth,Hawaii
6156,Hollywood,
8399,Stockton,New Mexico
1316,Santa Ana,New Hampshire
1049,Fullerton,Vermont
9583,Long Beach,New Hampshire
4375,Washington,South Carolina
3026,Syracuse,Delaware
4395,San Diego,Indiana
1347,Peoria,Oklahoma
3054,Flint,Utah
56,Minneapolis,New York
521,New York City,Kentucky
8861,Kansas City,Minnesota
2015,Las Vegas,Virginia
346,Vallejo,New York
3779,Elizabeth,West Virginia
4751,Glendale,Hawaii
2843,Aurora,
4399,Mobile,Maryland
9473,Syracuse,Montana
8129,Orlando,
4089,Memphis,Utah
6241,Charleston,Arkansas
6112,Richmond,Mississippi
6868,Mobile,Arkansas
5836,Irvine,Louisiana
8613,Elizabeth,Tennessee
5850,Erie,District of Columbia
1261,Oxnard,Utah
6015,Stockton,Illinois
8951,Provo,Iowa
1707,Bellevue,Nebraska
8464,Memphis,Washington
3265,Burbank,Oklahoma
8668,Hialeah,Washington
4142,Dayton,Oklahoma
4597,Lancaster,New Hampshire
5413,Cape Coral,New Mexico
6283,Plano,New Hampshire
8298,Rockford,South Carolina
5746,Atlanta,New Hampshire
